TDRS 3                  
1 19548U 88091B   26169.38611782 -.00000309  00000+0  00000+0 0  9994
2 19548  12.6007 340.9974 0038393 356.2174  19.5963  1.00272798125406
FLTSATCOM 8 (USA 46)    
1 20253U 89077A   26169.55543414 -.00000378  00000+0  00000+0 0  9995
2 20253  12.4212 351.1559 0004332  56.4284 184.8805  1.00276789260570
SKYNET 4C               
1 20776U 90079A   26162.20198485  .00000132  00000+0  00000+0 0  9995
2 20776  13.3424 349.8525 0002400  96.2313 279.5534  1.00274127130831
TDRS 5                  
1 21639U 91054B   26169.23111358  .00000073  00000+0  00000+0 0  9996
2 21639  14.0710 353.7738 0006351 275.3826 272.8417  1.00274771127729
TDRS 6                  
1 22314U 93003B   26169.38672450 -.00000307  00000+0  00000+0 0  9995
2 22314  14.1828 357.0502 0008102 178.2098 184.7762  1.00270951122427
UFO 2 (USA 95)          
1 22787U 93056A   26169.18767187  .00000114  00000+0  00000+0 0  9992
2 22787  11.8950   3.5495 0005679   8.5548 350.5951  1.00277211118554
USA 99 (MILSTAR-1 1)    
1 22988U 94009A   26169.32428878 -.00000215  00000+0  00000+0 0  9994
2 22988  17.6290  27.6955 0000943 224.6344 129.6308  0.98723793 32957
UFO 4 (USA 108)         
1 23467U 95003A   26169.36364120 -.00000033  00000+0  00000+0 0  9993
2 23467   9.7022  13.2263 0003062  69.5782 126.8864  1.00272798114961
TDRS 7                  
1 23613U 95035B   26169.61759679 -.00000246  00000+0  00000+0 0  9992
2 23613  13.3766 348.1804 0010975  79.3471 150.4600  1.00264100113267
USA 115 (MILSTAR-1 2)   
1 23712U 95060A   26169.51991986 -.00000206  00000+0  00000+0 0  9994
2 23712  14.0735   3.7414 0001517 138.2916 218.1175  1.00364382 32894
INMARSAT 3-F1           
1 23839U 96020A   26169.33021133 -.00000122  00000+0  00000+0 0  9996
2 23839  10.6032  46.6244 0003780  53.3816 189.0686  0.99978480110261
INMARSAT 3-F2           
1 24307U 96053A   26169.56147885 -.00000279  00000+0  00000+0 0  9994
2 24307   9.8598  53.9229 0006656  31.2340 171.8212  1.00002766108938
INMARSAT 3-F3           
1 24674U 96070A   26168.83372411  .00000126  00000+0  00000+0 0  9994
2 24674  10.3194  49.6476 0003343  26.3508 172.0689  0.99982712107914
AMC-3                   
1 24936U 97050A   26169.61018432  .00000050  00000+0  00000+0 0  9997
2 24936   8.1688  63.9706 0004183  27.9610 258.0290  0.99062357 52441
USA 134                 
1 25019U 97065A   26169.29687169 -.00000074  00000+0  00000+0 0  9996
2 25019  12.7859  21.7170 0003378 337.6766 261.7172  1.00268932 32965
INMARSAT 3-F5           
1 25153U 98006B   26169.02871193 -.00000301  00000+0  00000+0 0  9997
2 25153   9.6958  53.2526 0004494  29.5667 139.7480  1.00267375103900
ABS-6                   
1 25924U 99053A   26169.56991558 -.00000126  00000+0  00000+0 0  9998
2 25924   0.0185 299.8865 0003612 151.4091 179.7028  1.00271149 97856
UFO 10 (USA 146)        
1 25967U 99063A   26167.87405916 -.00000197  00000+0  00000+0 0  9994
2 25967   9.8493  27.2133 0001836  41.8612 127.7943  1.00271309 97341
ASIASTAR                
1 26107U 00016A   26169.59632722 -.00000343  00000+0  00000+0 0  9992
2 26107   9.1337  58.1404 0004540  29.5452 138.8012  1.00268157 95932
USA 149 (DSP 20)        
1 26356U 00024A   26169.22407253  .00000083  00000+0  00000+0 0  9996
2 26356  13.1716  11.8477 0001984 311.6381 218.2712  1.00275274 32923
TDRS 8                  
1 26388U 00034A   26169.62935726 -.00000204  00000+0  00000+0 0  9993
2 26388  12.6857  31.3096 0004467  19.7875 166.9142  1.00266921 95198
NSS-11                  
1 26554U 00059A   26169.57329560  .00000018  00000+0  00000+0 0  9994
2 26554   2.1311  81.3739 0002842 355.5942 212.2207  1.00271687 41308
USA 153                 
1 26575U 00065A   26169.55511182 -.00000336  00000+0  00000+0 0  9999
2 26575  11.6271  35.4114 0003026  47.4698 158.2304  1.00269288 32949
AMC-6                   
1 26580U 00067A   26169.61156434  .00000082  00000+0  00000+0 0  9996
2 26580   0.1568  83.0702 0003465  12.1039 256.8078  1.00269201 93905
USA 157 (MILSTAR-2 2)   
1 26715U 01009A   26169.45806769  .00000098  00000+0  00000+0 0  9995
2 26715  11.5445  19.7599 0039260 177.5848  84.2144  1.00275422 32958
INTELSAT 902 (IS-902)   
1 26900U 01039A   26169.52849991 -.00000292  00000+0  00000+0 0  9993
2 26900   6.1204  71.7676 0004307  12.4923 322.6674  1.00271543 90700
USA 164 (MILSTAR-2 3)   
1 27168U 02001A   26168.80294760  .00000088  00000+0  00000+0 0  9990
2 27168  11.1806  21.9069 0099044   8.4150 183.8658  1.00277966 32961
INTELSAT 904 (IS-904)   
1 27380U 02007A   26169.46096602 -.00000235  00000+0  00000+0 0  9995
2 27380   6.9241  69.1697 0006529   5.9759 326.0004  1.00270286 51770
DIRECTV 5 (TEMPO 1)     
1 27426U 02023A   26169.41919968 -.00000065  00000+0  00000+0 0  9999
2 27426   4.8819  75.2944 0003143  13.6987 218.4628  1.00271613 88131
INTELSAT 905 (IS-905)   
1 27438U 02027A   26169.46642175  .00000085  00000+0  00000+0 0  9995
2 27438   6.7576  69.7858 0003873  22.2862 205.3245  1.00271956 51371
GALAXY 3C (G-3C)        
1 27445U 02030A   26169.37701778 -.00000160  00000+0  00000+0 0  9997
2 27445   3.7359  77.9598 0001601  30.5698 198.9629  1.00271347 46509
